SPAWAR-CAL-O            
1 43766U 18099J   26068.73975788  .00021069  00000+0  69663-3 0  9999
2 43766  97.4452 132.0993 0007239 285.0670  74.9770 15.31356755398280
STARLINK-30426          
1 57848U 23141J   26068.88263382  .00001173  00000+0  51744-4 0  9991
2 57848  53.1598 283.2593 0001437 117.1697 242.9451 15.30189936140359
